{"type": "FeatureCollection", "features": [ {"type": "Feature", "properties": {"norad_id": 66465, "name": "STARLINK-35448", "group": "last-30-days", "lat": 24.946899823357523, "lon": -126.91542447038364, "alt_km": 433.79253700504523, "timestamp": "2025-12-10T16:57:10.415090+00:00", "meta": {"OBJECT_NAME": "STARLINK-35448", "OBJECT_ID": "2025-262K", "EPOCH": "2025-12-10T12:00:02.998944", "MEAN_MOTION": 15.44023976, "ECCENTRICITY": 0.0001613, "INCLINATION": 43.0004, "RA_OF_ASC_NODE": 84.2256, "ARG_OF_PERICENTER": 278.8715, "MEAN_ANOMALY": 154.9187, "EPHEMERIS_TYPE": 0, "CLASSIFICATION_TYPE": "U", "NORAD_CAT_ID": 66465, "ELEMENT_SET_NO": 999, "REV_AT_EPOCH": 527, "BSTAR": -0.04841, "MEAN_MOTION_DOT": -0.02014022, "MEAN_MOTION_DDOT": 0}, "tle": {"line1": "1 66465U 25262K   25344.50003471 -.02014022  00000+0 -48410-1 0  9992", "line2": "2 66465  43.0004  84.2256 0001613 278.8715 154.9187 15.44023976  5276"}}, "geometry": {"type": "Point", "coordinates": [-126.91542447038364, 24.946899823357523]}}, {"type": "Feature", "properties": {"norad_id": 66466, "name": "STARLINK-35388", "group": "last-30-days", "lat": 19.328419041265136, "lon": -119.1039367705106, "alt_km": 430.4805832446036, "timestamp": "2025-12-10T16:57:10.415100+00:00", "meta": {"OBJECT_NAME": "STARLINK-35388", "OBJECT_ID": "2025-262L", "EPOCH": "2025-12-10T12:00:02.998944", "MEAN_MOTION": 15.45385944, "ECCENTRICITY": 0.000135, "INCLINATION": 43.0004, "RA_OF_ASC_NODE": 84.2037, "ARG_OF_PERICENTER": 275.9912, "MEAN_ANOMALY": 165.9633, "EPHEMERIS_TYPE": 0, "CLASSIFICATION_TYPE": "U", "NORAD_CAT_ID": 66466, "ELEMENT_SET_NO": 999, "REV_AT_EPOCH": 527, "BSTAR": -0.047826, "MEAN_MOTION_DOT": -0.02077161, "MEAN_MOTION_DDOT": 0}, "tle": {"line1": "1 66466U 25262L   25344.50003471 -.02077161  00000+0 -47826-1 0  9996", "line2": "2 66466  43.0004  84.2037 0001350 275.9912 165.9633 15.45385944  5274"}}, "geometry": {"type": "Point", "coordinates": [-119.1039367705106, 19.328419041265136]}}, {"type": "Feature", "properties": {"norad_id": 66467, "name": "STARLINK-35682", "group": "last-30-days", "lat": 30.85410616145882, "lon": -136.81573465363067, "alt_km": 436.61193090656434, "timestamp": "2025-12-10T16:57:10.415110+00:00", "meta": {"OBJECT_NAME": "STARLINK-35682", "OBJECT_ID": "2025-262M", "EPOCH": "2025-12-10T12:00:02.998944", "MEAN_MOTION": 15.42780871, "ECCENTRICITY": 0.0001125, "INCLINATION": 43.0005, "RA_OF_ASC_NODE": 84.2486, "ARG_OF_PERICENTER": 286.616, "MEAN_ANOMALY": 137.5631, "EPHEMERIS_TYPE": 0, "CLASSIFICATION_TYPE": "U", "NORAD_CAT_ID": 66467, "ELEMENT_SET_NO": 999, "REV_AT_EPOCH": 527, "BSTAR": -0.054538, "MEAN_MOTION_DOT": -0.02155517, "MEAN_MOTION_DDOT": 0}, "tle": {"line1": "1 66467U 25262M   25344.50003471 -.02155517  00000+0 -54538-1 0  9997", "line2": "2 66467  43.0005  84.2486 0001125 286.6160 137.5631 15.42780871  5276"}}, "geometry": {"type": "Point", "coordinates": [-136.81573465363067, 30.85410616145882]}}, {"type": "Feature", "properties": {"norad_id": 66468, "name": "STARLINK-35331", "group": "last-30-days", "lat": 9.249837330568418, "lon": -107.09888323307906, "alt_km": 415.673114730208, "timestamp": "2025-12-10T16:57:10.415123+00:00", "meta": {"OBJECT_NAME": "STARLINK-35331", "OBJECT_ID": "2025-262N", "EPOCH": "2025-12-09T18:35:23.867520", "MEAN_MOTION": 15.50297909, "ECCENTRICITY": 0.00010504, "INCLINATION": 43.001, "RA_OF_ASC_NODE": 88.4141, "ARG_OF_PERICENTER": 308.1089, "MEAN_ANOMALY": 51.9676, "EPHEMERIS_TYPE": 0, "CLASSIFICATION_TYPE": "U", "NORAD_CAT_ID": 66468, "ELEMENT_SET_NO": 999, "REV_AT_EPOCH": 510, "BSTAR": -0.0022109145, "MEAN_MOTION_DOT": -0.00126691, "MEAN_MOTION_DDOT": 0}, "tle": {"line1": "1 66468U 25262N   25343.77458180 -.00126691  00000+0 -22109-2 0  9996", "line2": "2 66468  43.0010  88.4141 0001050 308.1089  51.9676 15.50297909  5108"}}, "geometry": {"type": "Point", "coordinates": [-107.09888323307906, 9.249837330568418]}}, {"type": "Feature", "properties": {"norad_id": 66469, "name": "STARLINK-35451", "group": "last-30-days", "lat": 4.283671718060291, "lon": -101.66279632307992, "alt_km": 414.12736031861004, "timestamp": "2025-12-10T16:57:10.415133+00:00", "meta": {"OBJECT_NAME": "STARLINK-35451", "OBJECT_ID": "2025-262P", "EPOCH": "2025-12-10T11:34:11.292096", "MEAN_MOTION": 15.50604554, "ECCENTRICITY": 0.0001598, "INCLINATION": 43.0005, "RA_OF_ASC_NODE": 84.26, "ARG_OF_PERICENTER": 267.6655, "MEAN_ANOMALY": 92.4022, "EPHEMERIS_TYPE": 0, "CLASSIFICATION_TYPE": "U", "NORAD_CAT_ID": 66469, "ELEMENT_SET_NO": 999, "REV_AT_EPOCH": 521, "BSTAR": 0.0017369, "MEAN_MOTION_DOT": 0.00102999, "MEAN_MOTION_DDOT": 0}, "tle": {"line1": "1 66469U 25262P   25344.48207514  .00102999  00000+0  17369-2 0  9994", "line2": "2 66469  43.0005  84.2600 0001598 267.6655  92.4022 15.50604554  5217"}}, "geometry": {"type": "Point", "coordinates": [-101.66279632307992, 4.283671718060291]}}, {"type": "Feature", "properties": {"norad_id": 66470, "name": "STARLINK-35655", "group": "last-30-days", "lat": 10.142342253165664, "lon": -108.0951355633886, "alt_km": 424.01282425250247, "timestamp": "2025-12-10T16:57:10.415143+00:00", "meta": {"OBJECT_NAME": "STARLINK-35655", "OBJECT_ID": "2025-262Q", "EPOCH": "2025-12-10T12:00:02.998944", "MEAN_MOTION": 15.48058863, "ECCENTRICITY": 0.00013, "INCLINATION": 43.0003, "RA_OF_ASC_NODE": 84.1744, "ARG_OF_PERICENTER": 286.1017, "MEAN_ANOMALY": 167.9327, "EPHEMERIS_TYPE": 0, "CLASSIFICATION_TYPE": "U", "NORAD_CAT_ID": 66470, "ELEMENT_SET_NO": 999, "REV_AT_EPOCH": 527, "BSTAR": -0.044147, "MEAN_MOTION_DOT": -0.02101991, "MEAN_MOTION_DDOT": 0}, "tle": {"line1": "1 66470U 25262Q   25344.50003471 -.02101991  00000+0 -44147-1 0  9993", "line2": "2 66470  43.0003  84.1744 0001300 286.1017 167.9327 15.48058863  5279"}}, "geometry": {"type": "Point", "coordinates": [-108.0951355633886, 10.142342253165664]}}, {"type": "Feature", "properties": {"norad_id": 66471, "name": "STARLINK-35569", "group": "last-30-days", "lat": 5.877438655356498, "lon": -103.3879661173464, "alt_km": 414.2322711971492, "timestamp": "2025-12-10T16:57:10.415153+00:00", "meta": {"OBJECT_NAME": "STARLINK-35569", "OBJECT_ID": "2025-262R", "EPOCH": "2025-12-10T08:29:11.778720", "MEAN_MOTION": 15.50319363, "ECCENTRICITY": 0.0001981, "INCLINATION": 43.0004, "RA_OF_ASC_NODE": 85.0176, "ARG_OF_PERICENTER": 247.1656, "MEAN_ANOMALY": 112.8995, "EPHEMERIS_TYPE": 0, "CLASSIFICATION_TYPE": "U", "NORAD_CAT_ID": 66471, "ELEMENT_SET_NO": 999, "REV_AT_EPOCH": 519, "BSTAR": 0.0022094, "MEAN_MOTION_DOT": 0.00130242, "MEAN_MOTION_DDOT": 0}, "tle": {"line1": "1 66471U 25262R   25344.35360855  .00130242  00000+0  22094-2 0  9994", "line2": "2 66471  43.0004  85.0176 0001981 247.1656 112.8995 15.50319363  5190"}}, "geometry": {"type": "Point", "coordinates": [-103.3879661173464, 5.877438655356498]}}, {"type": "Feature", "properties": {"norad_id": 66472, "name": "STARLINK-35567", "group": "last-30-days", "lat": 2.9724957947475947, "lon": -100.2507702845783, "alt_km": 414.3494972355729, "timestamp": "2025-12-10T16:57:10.415163+00:00", "meta": {"OBJECT_NAME": "STARLINK-35567", "OBJECT_ID": "2025-262S", "EPOCH": "2025-12-10T11:33:41.650848", "MEAN_MOTION": 15.50613801, "ECCENTRICITY": 0.000162, "INCLINATION": 43.0003, "RA_OF_ASC_NODE": 84.258, "ARG_OF_PERICENTER": 274.2035, "MEAN_ANOMALY": 85.864, "EPHEMERIS_TYPE": 0, "CLASSIFICATION_TYPE": "U", "NORAD_CAT_ID": 66472, "ELEMENT_SET_NO": 999, "REV_AT_EPOCH": 521, "BSTAR": 0.0019799, "MEAN_MOTION_DOT": 0.0011772, "MEAN_MOTION_DDOT": 0}, "tle": {"line1": "1 66472U 25262S   25344.48173207  .00117720  00000+0  19799-2 0  9996", "line2": "2 66472  43.0003  84.2580 0001620 274.2035  85.8640 15.50613801  5215"}}, "geometry": {"type": "Point", "coordinates": [-100.2507702845783, 2.9724957947475947]}}, {"type": "Feature", "properties": {"norad_id": 66473, "name": "STARLINK-35568", "group": "last-30-days", "lat": 1.656732470067402, "lon": -98.84059136291395, "alt_km": 414.51875711222783, "timestamp": "2025-12-10T16:57:10.415173+00:00", "meta": {"OBJECT_NAME": "STARLINK-35568", "OBJECT_ID": "2025-262T", "EPOCH": "2025-12-10T10:00:26.532864", "MEAN_MOTION": 15.50612944, "ECCENTRICITY": 0.0001568, "INCLINATION": 43.001, "RA_OF_ASC_NODE": 84.6313, "ARG_OF_PERICENTER": 274.6752, "MEAN_ANOMALY": 85.3929, "EPHEMERIS_TYPE": 0, "CLASSIFICATION_TYPE": "U", "NORAD_CAT_ID": 66473, "ELEMENT_SET_NO": 999, "REV_AT_EPOCH": 520, "BSTAR": 0.0013936, "MEAN_MOTION_DOT": 0.0008238, "MEAN_MOTION_DDOT": 0}, "tle": {"line1": "1 66473U 25262T   25344.41697376  .00082380  00000+0  13936-2 0  9998", "line2": "2 66473  43.0010  84.6313 0001568 274.6752  85.3929 15.50612944  5204"}}, "geometry": {"type": "Point", "coordinates": [-98.84059136291395, 1.656732470067402]}}, {"type": "Feature", "properties": {"norad_id": 66474, "name": "STARLINK-35620", "group": "last-30-days", "lat": 0.4720676284044312, "lon": -97.5730701947227, "alt_km": 414.9437449793013, "timestamp": "2025-12-10T16:57:10.415183+00:00", "meta": {"OBJECT_NAME": "STARLINK-35620", "OBJECT_ID": "2025-262U", "EPOCH": "2025-12-10T09:59:58.572096", "MEAN_MOTION": 15.5053595, "ECCENTRICITY": 0.0001069, "INCLINATION": 43.0007, "RA_OF_ASC_NODE": 84.6285, "ARG_OF_PERICENTER": 283.2418, "MEAN_ANOMALY": 76.8323, "EPHEMERIS_TYPE": 0, "CLASSIFICATION_TYPE": "U", "NORAD_CAT_ID": 66474, "ELEMENT_SET_NO": 999, "REV_AT_EPOCH": 520, "BSTAR": 0.0012624, "MEAN_MOTION_DOT": 0.00074307, "MEAN_MOTION_DDOT": 0}, "tle": {"line1": "1 66474U 25262U   25344.41665014  .00074307  00000+0  12624-2 0  9996", "line2": "2 66474  43.0007  84.6285 0001069 283.2418  76.8323 15.50535950  5204"}}, "geometry": {"type": "Point", "coordinates": [-97.5730701947227, 0.4720676284044312]}}]}